CCSDS_OMM_VERS = 2.0
CREATION_DATE  = 
ORIGINATOR     = 

OBJECT_NAME    = STARLINK-36645
OBJECT_ID      = 2026-025Q
CENTER_NAME    = EARTH
REF_FRAME      = TEME
TIME_SYSTEM    = UTC
MEAN_ELEMENT_THEORY = SGP/SGP4

EPOCH          = 2026-02-16T20:00:04.000032
MEAN_MOTION    = 16.00107899
ECCENTRICITY   = .0001531
INCLINATION    = 97.2767
RA_OF_ASC_NODE = 158.2382
ARG_OF_PERICENTER = 67.0493
MEAN_ANOMALY   = 67.5870

EPHEMERIS_TYPE = 0
CLASSIFICATION_TYPE = U
NORAD_CAT_ID   = 67707
ELEMENT_SET_NO = 999
REV_AT_EPOCH   = 210
BSTAR          = -.30037E-2
MEAN_MOTION_DOT = -.1520241E-1
MEAN_MOTION_DDOT = .7127E-3

CCSDS_OMM_VERS = 2.0
CREATION_DATE  = 
ORIGINATOR     = 

OBJECT_NAME    = STARLINK-36287
OBJECT_ID      = 2026-025R
CENTER_NAME    = EARTH
REF_FRAME      = TEME
TIME_SYSTEM    = UTC
MEAN_ELEMENT_THEORY = SGP/SGP4

EPOCH          = 2026-02-16T20:00:04.000032
MEAN_MOTION    = 16.00794497
ECCENTRICITY   = .0001514
INCLINATION    = 97.2761
RA_OF_ASC_NODE = 158.2437
ARG_OF_PERICENTER = 68.5593
MEAN_ANOMALY   = 78.7854

EPHEMERIS_TYPE = 0
CLASSIFICATION_TYPE = U
NORAD_CAT_ID   = 67708
ELEMENT_SET_NO = 999
REV_AT_EPOCH   = 265
BSTAR          = -.28263E-2
MEAN_MOTION_DOT = -.1487707E-1
MEAN_MOTION_DDOT = .68997E-3

CCSDS_OMM_VERS = 2.0
CREATION_DATE  = 
ORIGINATOR     = 

OBJECT_NAME    = STARLINK-36698
OBJECT_ID      = 2026-025S
CENTER_NAME    = EARTH
REF_FRAME      = TEME
TIME_SYSTEM    = UTC
MEAN_ELEMENT_THEORY = SGP/SGP4

EPOCH          = 2026-02-16T20:00:04.000032
MEAN_MOTION    = 16.01640740
ECCENTRICITY   = .0001422
INCLINATION    = 97.2759
RA_OF_ASC_NODE = 158.2506
ARG_OF_PERICENTER = 71.1984
MEAN_ANOMALY   = 91.5392

EPHEMERIS_TYPE = 0
CLASSIFICATION_TYPE = U
NORAD_CAT_ID   = 67709
ELEMENT_SET_NO = 999
REV_AT_EPOCH   = 249
BSTAR          = -.25975E-2
MEAN_MOTION_DOT = -.1435855E-1
MEAN_MOTION_DDOT = .6523E-3

CCSDS_OMM_VERS = 2.0
CREATION_DATE  = 
ORIGINATOR     = 

OBJECT_NAME    = STARLINK-36344
OBJECT_ID      = 2026-025T
CENTER_NAME    = EARTH
REF_FRAME      = TEME
TIME_SYSTEM    = UTC
MEAN_ELEMENT_THEORY = SGP/SGP4

EPOCH          = 2026-02-16T20:00:04.000032
MEAN_MOTION    = 16.01104108
ECCENTRICITY   = .0001222
INCLINATION    = 97.2761
RA_OF_ASC_NODE = 158.2464
ARG_OF_PERICENTER = 81.1066
MEAN_ANOMALY   = 72.1239

EPHEMERIS_TYPE = 0
CLASSIFICATION_TYPE = U
NORAD_CAT_ID   = 67710
ELEMENT_SET_NO = 999
REV_AT_EPOCH   = 265
BSTAR          = -.27023E-2
MEAN_MOTION_DOT = -.1448226E-1
MEAN_MOTION_DDOT = .6587E-3

CCSDS_OMM_VERS = 2.0
CREATION_DATE  = 
ORIGINATOR     = 

OBJECT_NAME    = STARLINK-36687
OBJECT_ID      = 2026-025U
CENTER_NAME    = EARTH
REF_FRAME      = TEME
TIME_SYSTEM    = UTC
MEAN_ELEMENT_THEORY = SGP/SGP4

EPOCH          = 2026-02-16T20:00:04.000032
MEAN_MOTION    = 16.01370181
ECCENTRICITY   = .000162
INCLINATION    = 97.2760
RA_OF_ASC_NODE = 158.2484
ARG_OF_PERICENTER = 63.1624
MEAN_ANOMALY   = 94.5148

EPHEMERIS_TYPE = 0
CLASSIFICATION_TYPE = U
NORAD_CAT_ID   = 67711
ELEMENT_SET_NO = 999
REV_AT_EPOCH   = 265
BSTAR          = -.26911E-2
MEAN_MOTION_DOT = -.1464321E-1
MEAN_MOTION_DDOT = .6744E-3

CCSDS_OMM_VERS = 2.0
CREATION_DATE  = 
ORIGINATOR     = 

OBJECT_NAME    = STARLINK-36705
OBJECT_ID      = 2026-025V
CENTER_NAME    = EARTH
REF_FRAME      = TEME
TIME_SYSTEM    = UTC
MEAN_ELEMENT_THEORY = SGP/SGP4

EPOCH          = 2026-02-16T20:00:04.000032
MEAN_MOTION    = 16.01940804
ECCENTRICITY   = .0001379
INCLINATION    = 97.2754
RA_OF_ASC_NODE = 158.2524
ARG_OF_PERICENTER = 67.7329
MEAN_ANOMALY   = 100.2504

EPHEMERIS_TYPE = 0
CLASSIFICATION_TYPE = U
NORAD_CAT_ID   = 67712
ELEMENT_SET_NO = 999
REV_AT_EPOCH   = 255
BSTAR          = -.25542E-2
MEAN_MOTION_DOT = -.1436621E-1
MEAN_MOTION_DDOT = .6552E-3

CCSDS_OMM_VERS = 2.0
CREATION_DATE  = 
ORIGINATOR     = 

OBJECT_NAME    = STARLINK-36708
OBJECT_ID      = 2026-025W
CENTER_NAME    = EARTH
REF_FRAME      = TEME
TIME_SYSTEM    = UTC
MEAN_ELEMENT_THEORY = SGP/SGP4

EPOCH          = 2026-02-16T20:00:04.000032
MEAN_MOTION    = 16.02626602
ECCENTRICITY   = .0001328
INCLINATION    = 97.2756
RA_OF_ASC_NODE = 158.2580
ARG_OF_PERICENTER = 73.7503
MEAN_ANOMALY   = 106.8106

EPHEMERIS_TYPE = 0
CLASSIFICATION_TYPE = U
NORAD_CAT_ID   = 67713
ELEMENT_SET_NO = 999
REV_AT_EPOCH   = 255
BSTAR          = -.23652E-2
MEAN_MOTION_DOT = -.1384994E-1
MEAN_MOTION_DDOT = .61711E-3

CCSDS_OMM_VERS = 2.0
CREATION_DATE  = 
ORIGINATOR     = 

OBJECT_NAME    = STARLINK-36702
OBJECT_ID      = 2026-025X
CENTER_NAME    = EARTH
REF_FRAME      = TEME
TIME_SYSTEM    = UTC
MEAN_ELEMENT_THEORY = SGP/SGP4

EPOCH          = 2026-02-16T20:00:04.000032
MEAN_MOTION    = 16.02420561
ECCENTRICITY   = .0001491
INCLINATION    = 97.2754
RA_OF_ASC_NODE = 158.2563
ARG_OF_PERICENTER = 67.8304
MEAN_ANOMALY   = 108.9260

EPHEMERIS_TYPE = 0
CLASSIFICATION_TYPE = U
NORAD_CAT_ID   = 67714
ELEMENT_SET_NO = 999
REV_AT_EPOCH   = 228
BSTAR          = -.24338E-2
MEAN_MOTION_DOT = -.1407947E-1
MEAN_MOTION_DDOT = .63468E-3

CCSDS_OMM_VERS = 2.0
CREATION_DATE  = 
ORIGINATOR     = 

OBJECT_NAME    = STARLINK-36718
OBJECT_ID      = 2026-025Y
CENTER_NAME    = EARTH
REF_FRAME      = TEME
TIME_SYSTEM    = UTC
MEAN_ELEMENT_THEORY = SGP/SGP4

EPOCH          = 2026-02-16T20:00:04.000032
MEAN_MOTION    = 16.03135213
ECCENTRICITY   = .0001296
INCLINATION    = 97.2757
RA_OF_ASC_NODE = 158.2621
ARG_OF_PERICENTER = 76.1956
MEAN_ANOMALY   = 113.3218

EPHEMERIS_TYPE = 0
CLASSIFICATION_TYPE = U
NORAD_CAT_ID   = 67715
ELEMENT_SET_NO = 999
REV_AT_EPOCH   = 249
BSTAR          = -.23047E-2
MEAN_MOTION_DOT = -.1390386E-1
MEAN_MOTION_DDOT = .62528E-3

CCSDS_OMM_VERS = 2.0
CREATION_DATE  = 
ORIGINATOR     = 

OBJECT_NAME    = STARLINK-36715
OBJECT_ID      = 2026-025Z
CENTER_NAME    = EARTH
REF_FRAME      = TEME
TIME_SYSTEM    = UTC
MEAN_ELEMENT_THEORY = SGP/SGP4

EPOCH          = 2026-02-16T20:00:04.000032
MEAN_MOTION    = 16.02907151
ECCENTRICITY   = .0001455
INCLINATION    = 97.2754
RA_OF_ASC_NODE = 158.2601
ARG_OF_PERICENTER = 75.3922
MEAN_ANOMALY   = 109.9080

EPHEMERIS_TYPE = 0
CLASSIFICATION_TYPE = U
NORAD_CAT_ID   = 67716
ELEMENT_SET_NO = 999
REV_AT_EPOCH   = 255
BSTAR          = -.23684E-2
MEAN_MOTION_DOT = -.1409629E-1
MEAN_MOTION_DDOT = .6397E-3

CCSDS_OMM_VERS = 2.0
CREATION_DATE  = 
ORIGINATOR     = 

OBJECT_NAME    = STARLINK-36385
OBJECT_ID      = 2026-025AA
CENTER_NAME    = EARTH
REF_FRAME      = TEME
TIME_SYSTEM    = UTC
MEAN_ELEMENT_THEORY = SGP/SGP4

EPOCH          = 2026-02-16T20:00:04.000032
MEAN_MOTION    = 16.02177403
ECCENTRICITY   = .0001499
INCLINATION    = 97.2759
RA_OF_ASC_NODE = 158.2546
ARG_OF_PERICENTER = 64.1388
MEAN_ANOMALY   = 108.0742

EPHEMERIS_TYPE = 0
CLASSIFICATION_TYPE = U
NORAD_CAT_ID   = 67717
ELEMENT_SET_NO = 999
REV_AT_EPOCH   = 255
BSTAR          = -.25153E-2
MEAN_MOTION_DOT = -.1434356E-1
MEAN_MOTION_DDOT = .65508E-3

CCSDS_OMM_VERS = 2.0
CREATION_DATE  = 
ORIGINATOR     = 

OBJECT_NAME    = CZ-2F DEB
OBJECT_ID      = 2026-024E
CENTER_NAME    = EARTH
REF_FRAME      = TEME
TIME_SYSTEM    = UTC
MEAN_ELEMENT_THEORY = SGP/SGP4

EPOCH          = 2026-02-16T15:36:46.528128
MEAN_MOTION    = 15.16312281
ECCENTRICITY   = .0262192
INCLINATION    = 50.3137
RA_OF_ASC_NODE = 121.4231
ARG_OF_PERICENTER = 197.3202
MEAN_ANOMALY   = 161.8681

EPHEMERIS_TYPE = 0
CLASSIFICATION_TYPE = U
NORAD_CAT_ID   = 67718
ELEMENT_SET_NO = 999
REV_AT_EPOCH   = 143
BSTAR          = .50229E-2
MEAN_MOTION_DOT = .250206E-2
MEAN_MOTION_DDOT = 0

CCSDS_OMM_VERS = 2.0
CREATION_DATE  = 
ORIGINATOR     = 

OBJECT_NAME    = CZ-2F DEB
OBJECT_ID      = 2026-024F
CENTER_NAME    = EARTH
REF_FRAME      = TEME
TIME_SYSTEM    = UTC
MEAN_ELEMENT_THEORY = SGP/SGP4

EPOCH          = 2026-02-16T15:15:09.423072
MEAN_MOTION    = 14.96999408
ECCENTRICITY   = .0334893
INCLINATION    = 49.7909
RA_OF_ASC_NODE = 122.7400
ARG_OF_PERICENTER = 187.1383
MEAN_ANOMALY   = 172.4722

EPHEMERIS_TYPE = 0
CLASSIFICATION_TYPE = U
NORAD_CAT_ID   = 67719
ELEMENT_SET_NO = 999
REV_AT_EPOCH   = 108
BSTAR          = .48419E-2
MEAN_MOTION_DOT = .188609E-2
MEAN_MOTION_DDOT = 0

CCSDS_OMM_VERS = 2.0
CREATION_DATE  = 
ORIGINATOR     = 

OBJECT_NAME    = CZ-2F DEB
OBJECT_ID      = 2026-024G
CENTER_NAME    = EARTH
REF_FRAME      = TEME
TIME_SYSTEM    = UTC
MEAN_ELEMENT_THEORY = SGP/SGP4

EPOCH          = 2026-02-16T15:39:30.848832
MEAN_MOTION    = 14.94333345
ECCENTRICITY   = .0345618
INCLINATION    = 49.8301
RA_OF_ASC_NODE = 122.8405
ARG_OF_PERICENTER = 183.8143
MEAN_ANOMALY   = 176.0149

EPHEMERIS_TYPE = 0
CLASSIFICATION_TYPE = U
NORAD_CAT_ID   = 67720
ELEMENT_SET_NO = 999
REV_AT_EPOCH   = 140
BSTAR          = .50011E-2
MEAN_MOTION_DOT = .189873E-2
MEAN_MOTION_DDOT = 0

CCSDS_OMM_VERS = 2.0
CREATION_DATE  = 
ORIGINATOR     = 

OBJECT_NAME    = 2026-027A
OBJECT_ID      = 2026-027A
CENTER_NAME    = EARTH
REF_FRAME      = TEME
TIME_SYSTEM    = UTC
MEAN_ELEMENT_THEORY = SGP/SGP4

EPOCH          = 2026-02-16T19:12:25.510464
MEAN_MOTION    = 15.17289007
ECCENTRICITY   = .000917
INCLINATION    = 97.4877
RA_OF_ASC_NODE = 177.0442
ARG_OF_PERICENTER = 272.9162
MEAN_ANOMALY   = 87.1022

EPHEMERIS_TYPE = 0
CLASSIFICATION_TYPE = U
NORAD_CAT_ID   = 67746
ELEMENT_SET_NO = 999
REV_AT_EPOCH   = 69
BSTAR          = .43193E-3
MEAN_MOTION_DOT = .855E-4
MEAN_MOTION_DDOT = 0

